[{"OBJECT_NAME":"FALCON EYE 2","OBJECT_ID":"2020-090A","EPOCH":"2026-03-09T02:26:19.073760","MEAN_MOTION":14.84956326,"ECCENTRICITY":0.00011533,"INCLINATION":97.8521,"RA_OF_ASC_NODE":144.2551,"ARG_OF_PERICENTER":93.9066,"MEAN_ANOMALY":266.228,"EPHEMERIS_TYPE":0,"CLASSIFICATION_TYPE":"U","NORAD_CAT_ID":47226,"ELEMENT_SET_NO":999,"REV_AT_EPOCH":28538,"BSTAR":0.0002554448,"MEAN_MOTION_DOT":2.123e-5,"MEAN_MOTION_DDOT":0},{"OBJECT_NAME":"THOR ABLESTAR DEB","OBJECT_ID":"1961-015LG","EPOCH":"2026-03-09T03:22:34.457376","MEAN_MOTION":14.82401387,"ECCENTRICITY":0.00412811,"INCLINATION":67.0386,"RA_OF_ASC_NODE":327.1987,"ARG_OF_PERICENTER":306.0111,"MEAN_ANOMALY":205.5133,"EPHEMERIS_TYPE":0,"CLASSIFICATION_TYPE":"U","NORAD_CAT_ID":15783,"ELEMENT_SET_NO":999,"REV_AT_EPOCH":16798,"BSTAR":0.0013473348,"MEAN_MOTION_DOT":0.0001088,"MEAN_MOTION_DDOT":0}]
